IRIDIUM 116             
1 43072U 17083C   25042.88184217  .00000194  00000+0  62095-4 0  9996
2 43072  86.4032 166.9470 0002051  90.7695 269.3736 14.34217756373894
IRIDIUM 130             
1 43073U 17083D   25042.85012927  .00000191  00000+0  61297-4 0  9992
2 43073  86.4041 167.1873 0002274  93.5723 266.5733 14.34217810373836
IRIDIUM 151             
1 43074U 17083E   25042.89452652  .00000228  00000+0  74511-4 0  9994
2 43074  86.4035 166.9884 0001945  92.1965 267.9454 14.34218744373861
IRIDIUM 134             
1 43075U 17083F   25042.86281183  .00000372  00000+0  12594-3 0  9993
2 43075  86.4035 167.0029 0002344  94.3382 265.8082 14.34220433373824
IRIDIUM 137             
1 43076U 17083G   25042.87549649  .00000548  00000+0  18862-3 0  9998
2 43076  86.4037 167.0801 0001944  80.3244 279.8172 14.34220928373893
IRIDIUM 141             
1 43077U 17083H   25042.86915612  .00000276  00000+0  91618-4 0  9994
2 43077  86.4031 166.9417 0002049 107.7489 252.3930 14.34218950373891
IRIDIUM 153             
1 43078U 17083J   25042.75155526  .00000573  00000+0  19756-3 0  9995
2 43078  86.4005 135.5148 0001711 110.6075 249.5304 14.34216721374983
IRIDIUM 131             
1 43079U 17083K   25042.85647077  .00000792  00000+0  27574-3 0  9994
2 43079  86.4036 167.0998 0001846  99.2802 260.8602 14.34218639373829
